GLOBALSTAR M075         
1 37192U 10054E   25351.73634080 -.00000091  00000+0  72174-4 0  9994
2 37192  51.9972 342.6695 0000324  70.0279 101.0008 12.62270606699024
GLOBALSTAR M073         
1 37193U 10054F   25351.49928859 -.00000074  00000+0  16780-3 0  9999
2 37193  52.0059 257.3545 0000920  49.0895 121.9600 12.62268021700986
GLOBALSTAR M083         
1 37739U 11033A   25351.89346435 -.00000071  00000+0  18173-3 0  9996
2 37739  51.9836 204.6306 0000972  69.7153  35.3725 12.62265767670050
GLOBALSTAR M088         
1 37740U 11033B   25351.60939785 -.00000125  00000+0 -11827-3 0  9993
2 37740  52.0207 111.4810 0000937 117.6604 255.2574 12.62271016665565
GLOBALSTAR M091         
1 37741U 11033C   25351.73626295 -.00000098  00000+0  34870-4 0  9999
2 37741  52.0004  74.3303 0000610 134.5552  34.3601 12.62268262666368
GLOBALSTAR M085         
1 37742U 11033D   25351.88177410 -.00000096  00000+0  46122-4 0  9997
2 37742  52.0145  25.0206 0000179 159.9398  11.2275 12.62267359666894
GLOBALSTAR M081         
1 37743U 11033E   25351.59018587 -.00000087  00000+0  92331-4 0  9998
2 37743  51.9980  28.5496 0000222  94.7932  71.3857 12.62270971667009
GLOBALSTAR M089         
1 37744U 11033F   25351.71008233 -.00000086  00000+0  98456-4 0  9993
2 37744  51.9954 342.3786 0000605  71.0769 100.6164 12.62262441667865
